ONEWEB-0012             
1 44057U 19010A   26190.06428589 -.00000156  00000+0 -44139-3 0  9998
2 44057  87.9074 224.4403 0001637  92.3203 267.8116 13.16594274354445
ONEWEB-0010             
1 44058U 19010B   26190.08963437  .00000199  00000+0  48807-3 0  9998
2 44058  87.9089 224.4309 0002139 103.8899 256.2470 13.16593150354496
ONEWEB-0008             
1 44059U 19010C   26190.03896561 -.00000023  00000+0 -94499-4 0  9994
2 44059  87.9082 224.4358 0002228  89.3460 270.7926 13.16593481354602
ONEWEB-0007             
1 44060U 19010D   26190.16750080  .00000146  00000+0  35387-3 0  9999
2 44060  87.8987 254.8420 0001865 105.7031 254.4305 13.15547980354261
ONEWEB-0006             
1 44061U 19010E   26190.17145899  .00000140  00000+0  33797-3 0  9994
2 44061  87.9002 254.8078 0002163  98.9355 261.2021 13.15550217354318
ONEWEB-0011             
1 44062U 19010F   26189.68341733 -.00000064  00000+0 -20499-3 0  9996
2 44062  87.8999 254.9149 0002256  98.9804 261.1581 13.15549076354248
ONEWEB-0013             
1 45131U 20008A   26190.02351814 -.00000687  00000+0 -20310-2 0  9996
2 45131  87.8499  48.4173 0001190  50.6340 309.4892 13.09460728308924
ONEWEB-0017             
1 45132U 20008B   26189.60894641 -.00000087  00000+0 -28542-3 0  9999
2 45132  87.8817  31.9996 0001926  92.2134 267.9213 13.10377894310751
ONEWEB-0020             
1 45133U 20008C   26190.03651927 -.00000240  00000+0 -72395-3 0  9993
2 45133  87.8815  31.9139 0001851  87.0124 273.1215 13.10368618311203
ONEWEB-0021             
1 45134U 20008D   26189.59363084 -.00000708  00000+0 -20645-2 0  9996
2 45134  87.8813  32.0165 0001690  88.2363 271.8958 13.10372242311456
ONEWEB-0023             
1 45136U 20008F   26189.98645569 -.00000429  00000+0 -12640-2 0  9998
2 45136  87.8829  31.9220 0001871  80.7381 279.3958 13.10374791310939
ONEWEB-0024             
1 45137U 20008G   26189.50044612 -.00000268  00000+0 -80356-3 0  9990
2 45137  87.8823  32.0119 0001882  92.0745 268.0597 13.10369636311033
ONEWEB-0025             
1 45138U 20008H   26190.03468016 -.00000078  00000+0 -25907-3 0  9999
2 45138  87.8817  31.8966 0002207  84.7086 275.4294 13.10369236311438
ONEWEB-0026             
1 45139U 20008J   26189.97944841  .00000416  00000+0  11389-2 0  9998
2 45139  87.8876  16.7284 0001962  91.4195 268.7158 13.11415062313966
ONEWEB-0028             
1 45140U 20008K   26189.87856508  .00000167  00000+0  43614-3 0  9991
2 45140  87.8875  16.7558 0001381  75.0455 285.0826 13.11418267311460
ONEWEB-0032             
1 45141U 20008L   26189.99256049  .00000005  00000+0 -20809-4 0  9993
2 45141  87.8818  31.9250 0001586  71.6365 288.4935 13.10376551311157
